{
  "type": "FeatureCollection",
  "name": "coimbatore_water_bodies",
  "crs": {
    "type": "name",
    "properties": {
      "name": "urn:ogc:def:crs:OGC:1.3:CRS84"
    }
  },
  "features": [
    {
      "type": "Feature",
      "properties": {
        "water_body_name": "Bhavani River",
        "water_body_type": "River",
        "is_coastal": false,
        "area_sq_km": 15.5
      },
      "geometry": {
        "type": "Polygon",
        "coordinates": [
          [
            [
              76.8,
              11.34
            ],
            [
              77.0,
              11.35
            ],
            [
              77.25,
              11.36
            ],
            [
              77.25,
              11.37
            ],
            [
              77.0,
              11.36
            ],
            [
              76.8,
              11.35
            ],
            [
              76.8,
              11.34
            ]
          ]
        ]
      }
    },
    {
      "type": "Feature",
      "properties": {
        "water_body_name": "Noyyal River",
        "water_body_type": "River",
        "is_coastal": false,
        "area_sq_km": 8.2
      },
      "geometry": {
        "type": "Polygon",
        "coordinates": [
          [
            [
              76.75,
              10.97
            ],
            [
              76.95,
              10.98
            ],
            [
              77.28,
              10.99
            ],
            [
              77.28,
              11.0
            ],
            [
              76.95,
              10.99
            ],
            [
              76.75,
              10.98
            ],
            [
              76.75,
              10.97
            ]
          ]
        ]
      }
    },
    {
      "type": "Feature",
      "properties": {
        "water_body_name": "Amaravathi River",
        "water_body_type": "River",
        "is_coastal": false,
        "area_sq_km": 12.0
      },
      "geometry": {
        "type": "Polygon",
        "coordinates": [
          [
            [
              77.05,
              10.45
            ],
            [
              77.15,
              10.6
            ],
            [
              77.28,
              10.8
            ],
            [
              77.29,
              10.8
            ],
            [
              77.16,
              10.6
            ],
            [
              77.06,
              10.45
            ],
            [
              77.05,
              10.45
            ]
          ]
        ]
      }
    },
    {
      "type": "Feature",
      "properties": {
        "water_body_name": "Aliyar Reservoir",
        "water_body_type": "Reservoir",
        "is_coastal": false,
        "area_sq_km": 6.4
      },
      "geometry": {
        "type": "Polygon",
        "coordinates": [
          [
            [
              76.96,
              10.47
            ],
            [
              76.99,
              10.47
            ],
            [
              76.99,
              10.5
            ],
            [
              76.96,
              10.5
            ],
            [
              76.96,
              10.47
            ]
          ]
        ]
      }
    },
    {
      "type": "Feature",
      "properties": {
        "water_body_name": "Siruvani Reservoir",
        "water_body_type": "Reservoir",
        "is_coastal": false,
        "area_sq_km": 3.8
      },
      "geometry": {
        "type": "Polygon",
        "coordinates": [
          [
            [
              76.67,
              10.96
            ],
            [
              76.7,
              10.96
            ],
            [
              76.7,
              10.99
            ],
            [
              76.67,
              10.99
            ],
            [
              76.67,
              10.96
            ]
          ]
        ]
      }
    },
    {
      "type": "Feature",
      "properties": {
        "water_body_name": "Singanallur Lake",
        "water_body_type": "Lake",
        "is_coastal": false,
        "area_sq_km": 1.15
      },
      "geometry": {
        "type": "Polygon",
        "coordinates": [
          [
            [
              77.01,
              10.99
            ],
            [
              77.03,
              10.99
            ],
            [
              77.03,
              11.01
            ],
            [
              77.01,
              11.01
            ],
            [
              77.01,
              10.99
            ]
          ]
        ]
      }
    },
    {
      "type": "Feature",
      "properties": {
        "water_body_name": "Sulur Lake",
        "water_body_type": "Lake",
        "is_coastal": false,
        "area_sq_km": 0.85
      },
      "geometry": {
        "type": "Polygon",
        "coordinates": [
          [
            [
              77.11,
              11.01
            ],
            [
              77.13,
              11.01
            ],
            [
              77.13,
              11.03
            ],
            [
              77.11,
              11.03
            ],
            [
              77.11,
              11.01
            ]
          ]
        ]
      }
    }
  ]
}